VNREDSAT 1              
1 39160U 13021B   24129.60390534  .00001163  00000+0  23336-3 0  9994
2 39160  97.9987 197.6113 0001621  90.0779 270.0609 14.63458319587648
RESURS-P 1              
1 39186U 13030A   24129.60297334  .00047717  00000+0  48802-3 0  9996
2 39186  97.0144 179.7413 0006308 348.9971  11.1150 15.64865952575179
ARIRANG-5 (KOMPSAT-5)   
1 39227U 13042A   24129.53112488  .00003689  00000+0  26767-3 0  9999
2 39227  97.6202 315.9903 0001496 151.1032 209.0277 15.04518648588194
SKYSAT-A                
1 39418U 13066C   24129.59389443  .00005244  00000+0  37416-3 0  9992
2 39418  97.4884 191.0587 0026597  80.7808 279.6426 15.04672826572391
DUBAISAT-2              
1 39419U 13066D   24129.61093317  .00004921  00000+0  40088-3 0  9998
2 39419  97.4018 136.5058 0013153 114.3677 245.8921 14.99864032570590
GPM-CORE                
1 39574U 14009C   24129.57343930  .00018466  00000+0  39984-3 0  9994
2 39574  64.9880   5.7024 0012485 265.3622  94.6093 15.44466261578931
SENTINEL-1A             
1 39634U 14016A   24129.58488777  .00000283  00000+0  69790-4 0  9996
2 39634  98.1809 137.2537 0001381  87.3303 272.8054 14.59198409537785
KAZEOSAT 1              
1 39731U 14024A   24129.52427726  .00000439  00000+0  14706-3 0  9993
2 39731  98.3952 206.6211 0001138  88.8398 271.2922 14.42015396527639
ALOS-2                  
1 39766U 14029A   24129.54496154  .00001527  00000+0  21134-3 0  9991
2 39766  97.9215 226.7533 0001597  97.7630 262.3763 14.79476508537788
KAZEOSAT 2              
1 40010U 14033A   24129.56612166  .00001078  00000+0  14067-3 0  9993
2 40010  97.6258 356.5040 0011387 345.9760  14.1136 14.82410200534797
HODOYOSHI-4             
1 40011U 14033B   24129.59262424  .00002009  00000+0  24591-3 0  9993
2 40011  97.5864 341.2430 0024636 333.5007  26.4947 14.84053962534484
DEIMOS-2                
1 40013U 14033D   24129.59908469  .00002589  00000+0  28405-3 0  9992
2 40013  97.6859  17.4604 0002009  62.7231 297.4191 14.88535927523003
HODOYOSHI-3             
1 40015U 14033F   24129.50475587  .00002185  00000+0  28546-3 0  9993
2 40015  97.5975 317.3784 0035514   7.5429 352.6311 14.81002811533505
SPOT 7                  
1 40053U 14034A   24129.56599649  .00000903  00000+0  20073-3 0  9991
2 40053  98.1600 197.0242 0001676  97.6613 262.4777 14.59284391524816
SKYSAT-B                
1 40072U 14037D   24129.46449069  .00001895  00000+0  23535-3 0  9991
2 40072  98.3355  39.4914 0004715 246.9503 113.1213 14.83869993531634
WORLDVIEW-3 (WV-3)      
1 40115U 14048A   24129.51910766  .00001824  00000+0  21800-3 0  9999
2 40115  97.8493 203.2830 0001717 225.9738 134.1336 14.85413676527711
GAOFEN-2                
1 40118U 14049A   24129.60999959  .00001746  00000+0  23297-3 0  9999
2 40118  97.6644 181.9552 0004557 192.2645 167.8458 14.80781855525360
YAOGAN-21               
1 40143U 14053A   24129.56959359  .00011804  00000+0  49416-3 0  9994
2 40143  97.2554 188.9208 0005564 326.1141  33.9741 15.23689424537747
YAOGAN-22               
1 40275U 14063A   24129.61153115 -.00000011  00000+0  92858-4 0  9991
2 40275 100.6563 261.2364 0006941 122.4250 237.7534 13.15479878458620
ASNARO                  
1 40298U 14070A   24129.57315569  .00016464  00000+0  78624-3 0  9994
2 40298  97.4119 211.8354 0001615 336.2796  23.8364 15.19115175527139
HODOYOSHI-1             
1 40299U 14070B   24129.59853968  .00024904  00000+0  51427-3 0  9997
2 40299  97.1424 190.2400 0008809 169.6069 190.5364 15.45794958528988
YAOGAN-23               
1 40305U 14071A   24129.57056242  .00038296  00000+0  75720-3 0  9995
2 40305  97.6889 112.0204 0003526 115.9744 244.1869 15.47018062526223
YAOGAN-24               
1 40310U 14072A   24129.60885805  .00001510  00000+0  22570-3 0  9995
2 40310  98.0499 254.2943 0012441 204.2930 155.7694 14.76172756510188
CBERS 4                 
1 40336U 14079A   24129.59706680  .00000268  00000+0  10801-3 0  9994
2 40336  98.4017 198.9579 0001834  96.4342 263.7053 14.35491580493540
RESURS-P 2              
1 40360U 14087A   24129.56776390  .00027409  00000+0  38276-3 0  9994
2 40360  97.1519 215.9440 0007480  90.9971 269.2141 15.56808786523364
YAOGAN-26               
1 40362U 14088A   24129.61886851  .00017021  00000+0  69794-3 0  9995
2 40362  97.0873 152.7804 0003267 218.1126 141.9882 15.24312739519822
SMAP                    
1 40376U 15003A   24129.57467805  .00000955  00000+0  19374-3 0  9994
2 40376  98.1288 136.5290 0001316 102.6664 257.4685 14.63404644495067
KOMPSAT-3A              
1 40536U 15014A   24129.57788360  .00010613  00000+0  47879-3 0  9999
2 40536  97.6116  79.3201 0005445  81.4526 278.7326 15.21182528503666
SENTINEL-2A             
1 40697U 15028A   24129.52222523  .00000272  00000+0  12031-3 0  9993
2 40697  98.5692 204.3540 0001039  95.7807 264.3494 14.30821038463661
GAOFEN-8                
1 40701U 15030A   24129.57872959  .00017822  00000+0  73777-3 0  9994
2 40701  97.6512 283.4906 0005380  27.0471 333.1045 15.23985775493617
CARBONITE 1 (CBNT-1)    
1 40718U 15032D   24129.54026941  .00002607  00000+0  36523-3 0  9996
2 40718  97.6613 331.6080 0014271 295.5155  64.4581 14.78266042475400
YAOGAN-27               
1 40878U 15040A   24129.60797080  .00000000  00000+0  10998-3 0  9991
2 40878 100.0807 140.2731 0008278 185.1847 174.9182 13.16015311416434
GAOFEN-9 01             
1 40894U 15047A   24129.60508198  .00001890  00000+0  25707-3 0  9998
2 40894  97.7330 185.7564 0030343 135.4110 224.9551 14.79584139466241
LAPAN-A2                
1 40931U 15052B   24125.75410535  .00001439  00000+0  10753-3 0  9999
2 40931   6.0007 303.0442 0013195 190.3596 169.6260 14.77790770465026
YAOGAN-28               
1 41026U 15064A   24129.58907327  .00012157  00000+0  51092-3 0  9993
2 41026  97.2061 281.4660 0004676 314.5561  45.5294 15.23553004473455
YAOGAN-29               
1 41038U 15069A   24129.60487534  .00000824  00000+0  11159-3 0  9995
2 41038  98.0567 143.7832 0002623  45.1663 314.9762 14.81680517456603
KENT RIDGE 1            
1 41167U 15077B   24129.51588844  .00005312  00000+0  24157-3 0  9992
2 41167  14.9801 197.2454 0010081 239.4499 120.4826 15.14701048463856
TELEOS-1                
1 41169U 15077D   24129.29435800  .00018807  00000+0  61378-3 0  9991
2 41169  14.9798 112.8199 0006082  31.7029 328.3659 15.29136502464734
GAOFEN-4                
1 41194U 15083A   24129.64052370 -.00000336  00000+0  00000+0 0  9992
2 41194   0.0543 279.4881 0003019 257.3540  26.3978  1.00269396 30814
JASON-3                 
1 41240U 16002A   24129.60438954 -.00000042  00000+0  83753-4 0  9993
2 41240  66.0412 293.5523 0007885 272.8555  87.1558 12.80931012388430
SENTINEL-3A             
1 41335U 16011A   24129.47098141  .00000242  00000+0  11788-3 0  9992
2 41335  98.6252 196.8530 0001056 111.1838 248.9456 14.26737643428305
ZIYUAN 3-2 (ZY 3-2)     
1 41556U 16033A   24129.55790621  .00010591  00000+0  48072-3 0  9996
2 41556  97.4570 205.3109 0001021 184.2141 175.9086 15.20979300440976
CARTOSAT-2C             
1 41599U 16040A   24129.37274667  .00007713  00000+0  36790-3 0  9994
2 41599  97.4770 188.8390 0011969 289.9446  70.0499 15.19300472436834
SKYSAT-C1               
1 41601U 16040C   24129.14017676  .00011721  00000+0  40351-3 0  9990
2 41601  97.0653 191.5095 0002685  65.6235 294.5286 15.30184918440028
LAPAN-A3                
1 41603U 16040E   24129.61206122  .00003907  00000+0  15973-3 0  9999
2 41603  97.1437 145.1297 0010461 236.3720 123.6521 15.24865798437190
BIROS                   
1 41604U 16040F   24129.57444923  .00013227  00000+0  36458-3 0  9995
2 41604  97.1252 159.1917 0009217 176.5881 183.5429 15.37198671438095
GAOFEN-3                
1 41727U 16049A   24129.61140055  .00000137  00000+0  54834-4 0  9999
2 41727  98.4058 137.8619 0001342  79.6267 280.5074 14.42209755407724
SKYSAT-C4               
1 41771U 16058B   24129.60823419  .00015008  00000+0  45070-3 0  9993
2 41771  97.0132 179.0442 0003358 112.9995 247.1604 15.34512458427146
SKYSAT-C5               
1 41772U 16058C   24128.61092060  .00013765  00000+0  39352-3 0  9998
2 41772  97.1619 184.9617 0009295 204.6754 155.4047 15.36049357425465
SKYSAT-C2               
1 41773U 16058D   24129.59279735  .00011871  00000+0  40832-3 0  9994
2 41773  97.0155 178.1076 0002964  65.3144 294.8406 15.30207775427064
SKYSAT-C3               
1 41774U 16058E   24129.60187711  .00020118  00000+0  47397-3 0  9996
2 41774  97.0145 185.1211 0011093 113.0488 247.1931 15.41892187427544
ALSAT 1B                
1 41785U 16059C   24129.60440199  .00000696  00000+0  12133-3 0  9990
2 41785  97.8215 159.5748 0009816 168.6560 191.4871 14.70906437407388
PATHFINDER 1            
1 41787U 16059E   24129.61205659  .00001202  00000+0  22947-3 0  9991
2 41787  97.8336 153.5822 0030749 134.6260 225.7460 14.65362528406903
SCATSAT 1               
1 41790U 16059H   24129.61159302  .00000549  00000+0  14315-3 0  9991
2 41790  98.2241 172.5328 0006736 129.0831 231.0966 14.53223751403314
GOKTURK 1A              
1 41875U 16073A   24129.63346527  .00000822  00000+0  17051-3 0  9994
2 41875  98.1545  24.4596 0001434  84.2004 275.9362 14.62739444396320
RESOURCESAT-2A          
1 41877U 16074A   24129.52437849  .00000282  00000+0  14817-3 0  9990
2 41877  98.6460 203.7860 0002169 112.2102 247.9306 14.21652235384945
CARTOSAT-2D             
1 41948U 17008A   24129.40735050  .00007460  00000+0  35588-3 0  9992
2 41948  97.4284 189.3366 0005425  78.3540 281.8303 15.19351541400702
SENTINEL-2B             
1 42063U 17013A   24129.55717027  .00000257  00000+0  11468-3 0  9995
2 42063  98.5698 204.3805 0001139  97.7440 262.3872 14.30818158374585
ZHUHAI-1 02 (CAS-4B)    
1 42759U 17034B   24129.35543985  .00017458  00000+0  66177-3 0  9996
2 42759  43.0184  91.4284 0010916  83.5238 276.6856 15.26552947381315
NUSAT-3 (MILANESAT)     
1 42760U 17034C   24129.32853403  .00021429  00000+0  74329-3 0  9995
2 42760  43.0086  78.0189 0012515 110.5480 249.6716 15.29341521381480
